GLOBAL-2                
1 43812U 18099BG  26068.69955396  .00003970  00000+0  26145-3 0  9998
2 43812  97.3697 109.3280 0007454 127.1924 232.9986 15.08046936396919
STARLINK-3272           
1 50187U 21125AH  26068.71468975 -.00000121  00000+0  10477-4 0  9998
2 50187  53.2168 239.0102 0001277  90.3373 269.7766 15.08836549236729
